NORAD_CAT_ID,OBJECT_NAME,OBJECT_TYPE,EPOCH,MEAN_MOTION,ECCENTRICITY,INCLINATION,RA_OF_ASC_NODE,ARG_OF_PERICENTER,MEAN_ANOMALY,BSTAR,MEAN_MOTION_DOT,MEAN_MOTION_DDOT,TLE_LINE0,TLE_LINE1,TLE_LINE2,SEMIMAJOR_AXIS,PERIOD,APOGEE,PERIGEE,DECAYED
53889.0,STARLINK-5031,PAYLOAD,2022-11-14 22:00:00,15.48295646,0.0001843,53.2176,1.8743,26.5627,20.0728,-0.023272,-0.01143192,0.0,0 STARLINK-5031,1 53889U 22119D   22318.91667824 -.01143192  00000-0 -23272-1 0  9997,2 53889  53.2176   1.8743 0001843  26.5627  20.0728 15.48295646  1309,6799.849,93.005,422.967,420.46,0.0
53889.0,STARLINK-5031,PAYLOAD,2022-11-15 04:00:00,15.47686921,0.0001634,53.2177,0.6829999999999999,33.5359,327.0707,-0.02381,-0.0114467999999999,0.0,0 STARLINK-5031,1 53889U 22119D   22319.16667824 -.01144680  00000-0 -23810-1 0  9996,2 53889  53.2177   0.6830 0001634  33.5359 327.0707 15.47686921  8484,6801.632,93.042,424.608,422.385,0.0
53889.0,STARLINK-5031,PAYLOAD,2022-11-15 14:00:01,15.4666456,0.0001915,53.2173,358.7016,34.3544,128.3175,-0.024471,-0.01136074,0.0,0 STARLINK-5031,1 53889U 22119D   22319.58334491 -.01136074  00000-0 -24471-1 0  9995,2 53889  53.2173 358.7016 0001915  34.3544 128.3175 15.46664560  1309,6804.628000000002,93.104,427.797,425.19,0.0
53889.0,STARLINK-5031,PAYLOAD,2022-11-15 22:00:00,15.45853541,0.0001725,53.2175,357.1152,38.9664,180.2571,-0.025274,-0.01140357,0.0,0 STARLINK-5031,1 53889U 22119D   22319.91667824 -.01140357  00000-0 -25274-1 0  9992,2 53889  53.2175 357.1152 0001725  38.9664 180.2571 15.45853541  8590,6807.0080000000025,93.152,430.047,427.699,0.0
53889.0,STARLINK-5031,PAYLOAD,2022-11-16 14:00:01,15.44226624,0.0001682,53.2172,353.9541,32.1303,297.3252,-0.026733,-0.01140529,0.0,0 STARLINK-5031,1 53889U 22119D   22320.58335648 -.01140529  00000-0 -26733-1 0  9995,2 53889  53.2172 353.9541 0001682  32.1303 297.3252 15.44226624  8693,6811.788000000001,93.251,434.799,432.508,0.0
53889.0,STARLINK-5031,PAYLOAD,2022-11-16 22:00:08,15.43411721,0.0001635,53.2174,352.3732,32.0661,351.3953,-0.027474,-0.01140054,0.0,0 STARLINK-5031,1 53889U 22119D   22320.91675926 -.01140054  00000-0 -27474-1 0  9994,2 53889  53.2174 352.3732 0001635  32.0661 351.3953 15.43411721  1307,6814.186,93.3,437.165,434.937,0.0
53889.0,STARLINK-5031,PAYLOAD,2022-11-17 04:00:00,15.42804233,0.0001247,53.2175,351.1913,58.5825,273.9987,-0.028134,-0.01143224,0.0,0 STARLINK-5031,1 53889U 22119D   22321.16667824 -.01143224  00000-0 -28134-1 0  9996,2 53889  53.2175 351.1913 0001247  58.5825 273.9987 15.42804233  8788,6815.975,93.337,438.69,436.99,0.0
53889.0,STARLINK-5031,PAYLOAD,2022-11-17 14:00:01,15.41837078,0.0001563,53.2168,349.2255,40.8753,86.40899999999998,-0.030903,-0.01209026,0.0,0 STARLINK-5031,1 53889U 22119D   22321.58334491 -.01209026  00000-0 -30903-1 0  9993,2 53889  53.2168 349.2255 0001563  40.8753  86.4090 15.41837078  1307,6818.825,93.395,441.755,439.624,0.0
53889.0,STARLINK-5031,PAYLOAD,2022-11-17 20:00:01,15.41175033,0.0001453999999999,53.2175,348.0429,44.3425,31.075,-0.029652,-0.01140873,0.0,0 STARLINK-5031,1 53889U 22119D   22321.83334491 -.01140873  00000-0 -29652-1 0  9994,2 53889  53.2175 348.0429 0001454  44.3425  31.0750 15.41175033  8895,6820.776999999999,93.435,443.634,441.65,0.0
53889.0,STARLINK-5031,PAYLOAD,2022-11-17 22:00:00,15.40971517,0.0001607,53.2172,347.651,46.6378,131.3581,-0.029825,-0.01139877,0.0,0 STARLINK-5031,1 53889U 22119D   22321.91667824 -.01139877  00000-0 -29825-1 0  9996,2 53889  53.2172 347.6510 0001607  46.6378 131.3581 15.40971517  1305,6821.378000000002,93.448,444.339,442.147,0.0
53889.0,STARLINK-5031,PAYLOAD,2022-11-18 14:00:01,15.39356748,0.0001423,53.217,344.5127,53.0799,223.344,-0.031981,-0.01156733,0.0,0 STARLINK-5031,1 53889U 22119D   22322.58334491 -.01156733  00000-0 -31981-1 0  9997,2 53889  53.2170 344.5127 0001423  53.0799 223.3440 15.39356748  9000,6826.147,93.546,448.984,447.041,0.0
53889.0,STARLINK-5031,PAYLOAD,2022-11-18 22:00:00,15.38526866,0.0001414,53.2173,342.9431,45.201,278.9832,-0.032192,-0.01134946,0.0,0 STARLINK-5031,1 53889U 22119D   22322.91667824 -.01134946  00000-0 -32192-1 0  9990,2 53889  53.2173 342.9431 0001414  45.2010 278.9832 15.38526866  1307,6828.602,93.596,451.432,449.501,0.0
53889.0,STARLINK-5031,PAYLOAD,2022-11-19 14:00:01,15.36834724,0.0001564,53.2168,339.8177,38.1731,18.6101,-0.031168,-0.01047221,0.0,0 STARLINK-5031,1 53889U 22119D   22323.58334491 -.01047221  00000-0 -31168-1 0  9996,2 53889  53.2168 339.8177 0001564  38.1731  18.6101 15.36834724  9163,6833.613,93.699,456.547,454.41,0.0
53889.0,STARLINK-5031,PAYLOAD,2022-11-19 20:00:01,15.36292215,0.0001389,53.2176,338.644,43.7799,316.6754,-0.0347769999999999,-0.01139397,0.0,0 STARLINK-5031,1 53889U 22119D   22323.83334491 -.01139397  00000-0 -34777-1 0  9999,2 53889  53.2176 338.6440 0001389  43.7799 316.6754 15.36292215  9206,6835.222,93.732,458.036,456.138,0.0
53889.0,STARLINK-5031,PAYLOAD,2022-11-19 22:00:00,15.36067563,0.0001881,53.2174,338.2544,33.9925,67.5844,-0.034004,-0.01108902,0.0,0 STARLINK-5031,1 53889U 22119D   22323.91667824 -.01108902  00000-0 -34004-1 0  9998,2 53889  53.2174 338.2544 0001881  33.9925  67.5844 15.36067563  1305,6835.888000000001,93.746,459.039,456.468,0.0
53889.0,STARLINK-5031,PAYLOAD,2022-11-20 14:00:01,15.3445573,0.0001667,53.2167,335.14,45.1508,143.1185,-0.036578,-0.01130467,0.0,0 STARLINK-5031,1 53889U 22119D   22324.58334491 -.01130467  00000-0 -36578-1 0  9992,2 53889  53.2167 335.1400 0001667  45.1508 143.1185 15.34455730  9311,6840.675,93.844,463.68,461.399,0.0
53889.0,STARLINK-5031,PAYLOAD,2022-11-20 22:00:00,15.33646866,0.0001545,53.2173,333.5816,51.5117,178.6411,-0.037803,-0.01137805,0.0,0 STARLINK-5031,1 53889U 22119D   22324.91667824 -.01137805  00000-0 -37803-1 0  9993,2 53889  53.2173 333.5816 0001545  51.5117 178.6411 15.33646866  1300,6843.08,93.894,466.002,463.887,0.0
53889.0,STARLINK-5031,PAYLOAD,2022-11-21 06:00:00,15.32838711,0.0001456,53.2172,332.0304,55.7843,215.27,-0.039052,-0.01144899,0.0,0 STARLINK-5031,1 53889U 22119D   22325.25001157 -.01144899  00000-0 -39052-1 0  9991,2 53889  53.2172 332.0304 0001456  55.7843 215.2700 15.32838711  9418,6845.485,93.943,468.346,466.353,0.0
53889.0,STARLINK-5031,PAYLOAD,2022-11-21 14:00:01,15.32047672,0.00016,53.2164,330.4795,39.0629,271.9076,-0.041217,-0.01175555,0.0,0 STARLINK-5031,1 53889U 22119D   22325.58334491 -.01175555  00000-0 -41217-1 0  9996,2 53889  53.2164 330.4795 0001600  39.0629 271.9076 15.32047672  1306,6847.840999999999,93.992,470.801,468.61,0.0
53889.0,STARLINK-5031,PAYLOAD,2022-11-21 22:00:00,15.31204012,0.0001525,53.2168,328.9284,35.3191,314.6169,-0.040717,-0.01134721,0.0,0 STARLINK-5031,1 53889U 22119D   22325.91667824 -.01134721  00000-0 -40717-1 0  9996,2 53889  53.2168 328.9284 0001525  35.3191 314.6169 15.31204012  1304,6850.356,94.044,473.266,471.176,0.0
53889.0,STARLINK-5031,PAYLOAD,2022-11-22 06:00:02,15.30392752,0.000172,53.2175,327.381,35.1909,352.7801,-0.041911,-0.01138418,0.0,0 STARLINK-5031,1 53889U 22119D   22326.25002315 -.01138418  00000-0 -41911-1 0  9996,2 53889  53.2175 327.3810 0001720  35.1909 352.7801 15.30392752  9573,6852.776999999999,94.093,475.82,473.463,0.0
53889.0,STARLINK-5031,PAYLOAD,2022-11-22 14:00:01,15.29596008,0.0001710999999999,53.2163,325.8363,35.2366,29.7194,-0.043887,-0.01160713,0.0,0 STARLINK-5031,1 53889U 22119D   22326.58335648 -.01160713  00000-0 -43887-1 0  9997,2 53889  53.2163 325.8363 0001711  35.2366  29.7194 15.29596008  1301,6855.156,94.143,478.194,475.848,0.0
53889.0,STARLINK-5031,PAYLOAD,2022-11-22 22:00:00,15.28768107,0.0001629999999999,53.2168,324.291,39.296,61.6207,-0.044235,-0.01142055,0.0,0 STARLINK-5031,1 53889U 22119D   22326.91667824 -.01142055  00000-0 -44235-1 0  9995,2 53889  53.2168 324.2910 0001630  39.2960  61.6207 15.28768107  1301,6857.630999999999,94.193,480.614,478.378,0.0
53889.0,STARLINK-5031,PAYLOAD,2022-11-23 04:00:00,15.28199983,0.0001477,53.2172,323.1352,50.8711,346.3905,-0.047179,-0.01208424,0.0,0 STARLINK-5031,1 53889U 22119D   22327.16667824 -.01208424  00000-0 -47179-1 0  9996,2 53889  53.2172 323.1352 0001477  50.8711 346.3905 15.28199983  9717,6859.33,94.229,482.208,480.182,0.0
53889.0,STARLINK-5031,PAYLOAD,2022-11-23 14:00:01,15.27151265,0.0001738,53.2162,321.2103,47.706,122.3038,-0.047075,-0.01170779,0.0,0 STARLINK-5031,1 53889U 22119D   22327.58334491 -.01170779  00000-0 -47075-1 0  9999,2 53889  53.2162 321.2103 0001738  47.7060 122.3038 15.27151265  1307,6862.47,94.293,485.528,483.142,0.0
53889.0,STARLINK-5031,PAYLOAD,2022-11-23 22:00:00,15.26328531,0.0001718,53.2165,319.6709,46.1942,156.9038,-0.047747,-0.01159034,0.0,0 STARLINK-5031,1 53889U 22119D   22327.91667824 -.01159034  00000-0 -47747-1 0  9992,2 53889  53.2165 319.6709 0001718  46.1942 156.9038 15.26328531  9822,6864.936,94.344,487.98,485.622,0.0
53889.0,STARLINK-5031,PAYLOAD,2022-11-24 14:00:01,15.24718737,0.0001530999999999,53.2163,316.6015,51.4275,214.8941,-0.051309,-0.01184108,0.0,0 STARLINK-5031,1 53889U 22119D   22328.58334491 -.01184108  00000-0 -51309-1 0  9996,2 53889  53.2163 316.6015 0001531  51.4275 214.8941 15.24718737  1309,6869.767,94.444,492.684,490.58,0.0
53889.0,STARLINK-5031,PAYLOAD,2022-11-24 22:00:00,15.23891088,0.0001529,53.2167,315.0679,46.2806,250.1971,-0.051608,-0.01163465,0.0,0 STARLINK-5031,1 53889U 22119D   22328.91667824 -.01163465  00000-0 -51608-1 0  9997,2 53889  53.2167 315.0679 0001529  46.2806 250.1971 15.23891088  9978,6872.254,94.495,495.17,493.069,0.0
53889.0,STARLINK-5031,PAYLOAD,2022-11-25 14:00:01,15.22268979,0.0001485,53.2164,312.0098,45.3151,308.5254,-0.054614,-0.0117232,0.0,0 STARLINK-5031,1 53889U 22119D   22329.58334491 -.01172320  00000-0 -54614-1 0  9992,2 53889  53.2164 312.0098 0001485  45.3151 308.5254 15.22268979  1308,6877.135,94.596,500.022,497.979,0.0
